IRIDIUM 39              
1 25042U 97069D   25251.25903710  .00000839  00000+0  21405-3 0  9990
2 25042  86.3985 175.5467 0019221  35.1551 325.0917 14.49317670460991
IRIDIUM 38              
1 25043U 97069E   25251.24517809  .00000577  00000+0  18375-3 0  9991
2 25043  86.4008 198.2265 0002723 130.5854 229.5582 14.38184329457894
IRIDIUM 42              
1 25077U 97077A   25251.14448416  .00000533  00000+0  17526-3 0  9992
2 25077  86.4001 204.5343 0001980 106.8063 253.3351 14.36414396453101
IRIDIUM 44              
1 25078U 97077B   25251.22239321  .00000599  00000+0  18278-3 0  9992
2 25078  86.4027 186.2287 0003988  99.3550 260.8101 14.40309184455651
IRIDIUM 45              
1 25104U 97082A   25251.26689017  .00021052  00000+0  69452-3 0  9990
2 25104  86.3624   7.4612 0110227  20.6685 339.8965 15.25514363464690
IRIDIUM 24              
1 25105U 97082B   25251.15778821  .00000749  00000+0  22154-3 0  9999
2 25105  86.3890  45.0789 0012176 154.4641 205.7164 14.42175769455177
IRIDIUM 51              
1 25262U 98018A   25251.27561332  .00050422  00000+0  93487-3 0  9993
2 25262  86.3852  14.5123 0075153 289.3474  69.9668 15.45627496459837
IRIDIUM 57              
1 25273U 98019B   25251.09837550  .00000397  00000+0  13015-3 0  9999
2 25273  86.3928 110.5249 0002108  90.1440 269.9998 14.35943728436683
